GLOBALSTAR M067         
1 32263U 07048A   25113.65070836 -.00000068  00000+0  21782-3 0  9999
2 32263  51.9716 195.5109 0001105 203.9106 306.4165 12.40670842802712
GLOBALSTAR M070         
1 32264U 07048B   25113.80663006 -.00000062  00000+0  23301-3 0  9997
2 32264  51.9751 294.1692 0000821  88.9600 284.2162 12.62316977806803
GLOBALSTAR M066         
1 32265U 07048C   25112.70566740  .00000077  00000+0  13755-2 0  9999
2 32265  51.9627 186.1026 0002248 129.7819  40.4331 12.35103851808445
GLOBALSTAR M068         
1 32266U 07048D   25113.72052288 -.00000061  00000+0  23919-3 0  9998
2 32266  51.9865 108.2874 0001135  21.3149 149.6050 12.62821372810676
GLOBALSTAR M079         
1 37188U 10054A   25114.04063672 -.00000069  00000+0  19386-3 0  9993
2 37188  52.0044 304.6171 0000975 117.3649  60.5946 12.62273507670297
GLOBALSTAR M074         
1 37189U 10054B   25113.79355102 -.00000074  00000+0  16353-3 0  9994
2 37189  52.0024 304.7018 0000681 103.2339 270.0142 12.62274446670199
GLOBALSTAR M076         
1 37190U 10054C   25114.25016301 -.00000056  00000+0  26603-3 0  9992
2 37190  52.0035 303.4750 0000675 120.5622  50.5258 12.62261722670329
GLOBALSTAR M077         
1 37191U 10054D   25113.72756042 -.00000091  00000+0  71737-4 0  9995
2 37191  52.0067 261.9073 0000740 113.8447 260.1211 12.62273558670276
